CAS-2T & KS-1Q          
1 41847U 16066G   20215.12895415  .00000056  00000-0  17964-4 0  9990
2 41847  98.6506 266.0956 0366796  92.8431 271.4788 14.38081551195983
NAYIF-1 (EO-88)         
1 42017U 17008BX  20215.17147764  .00001242  00000-0  50175-4 0  9998
2 42017  97.3574 282.0631 0007045 147.5436 212.6237 15.26602371192524
MAX VALIER SAT          
1 42778U 17036P   20215.14703939  .00000718  00000-0  33734-4 0  9991
2 42778  97.3018 267.5124 0011144 214.5384 145.5130 15.22685312172681
RADFXSAT (FOX-1B)       
1 43017U 17073E   20214.71856765  .00000226  00000-0  23692-4 0  9993
2 43017  97.7200 125.2079 0255321 262.8686  94.3434 14.78982492145858
FOX-1D (AO-92)          
1 43137U 18004AC  20215.17789522  .00000764  00000-0  34306-4 0  9999
2 43137  97.4436 286.0260 0007530 251.6025 108.4393 15.24193604142014
DIWATA-2B               
1 43678U 18084H   20215.15689695  .00000078  00000-0  13475-4 0  9997
2 43678  97.8890 333.5712 0010704  33.1157 327.0753 14.91640876 95835
ES'HAIL 2               
1 43700U 18090A   20215.14250840  .00000126  00000-0  00000-0 0  9995
2 43700   0.0181  81.2949 0001941  69.7013 237.2364  1.00271546  6166
FOX-1CLIFF (AO-95)      
1 43770U 18099N   20215.15556319  .00000463  00000-0  47486-4 0  9999
2 43770  97.7039 285.7350 0015719  49.2317 311.0265 14.95015642 90742
ITASAT 1                
1 43786U 18099AE  20215.14218374  .00000515  00000-0  51822-4 0  9998
2 43786  97.7054 286.1741 0016119  43.1390 317.1091 14.95348970 90763
JY1SAT (JO-97)          
1 43803U 18099AX  20215.15125124  .00000634  00000-0  62288-4 0  9999
2 43803  97.7015 285.9911 0016153  43.5934 316.6560 14.95532392 90760
PSAT2 (NO-104)          
1 44354U 19036R   20214.98636121  .00013829  00000-0  20101-3 0  9994
2 44354  28.5297  81.4470 0361883  77.5128 286.5697 15.04162444 60682
BRICSAT2 (NO-103)       
1 44355U 19036S   20214.89059514  .00027135  00000-0  37525-3 0  9993
2 44355  28.5296  70.8874 0338141  94.6295 269.2993 15.10187599 60770
JAISAT-1                
1 44419U 19038F   20215.12847168  .00000686  00000-0  42648-4 0  9998
2 44419  97.5417 176.1985 0020962 337.8005  22.2316 15.12841885 59507
DUCHIFAT-3              
1 44854U 19089C   20215.12066306  .00000238  00000-0  25679-4 0  9992
2 44854  36.9680 188.4658 0007850  65.8775 294.2850 14.99092045 35154
RS-44 & BREEZE-KM R/B   
1 44909U 19096E   20214.78314428  .00000006  00000-0 -29099-4 0  9997
2 44909  82.5241 325.1931 0218419 120.4286 241.8595 12.79707963 27983
ORBITAL FACTORY 2 (OF-2)
1 45113U 19071C   20215.10403629  .00001099  00000-0  44948-4 0  9999
2 45113  51.6442 143.0010 0012526 220.3778 139.6275 15.33481917 28131
HUSKYSAT-1              
1 45119U 19071J   20215.20645691  .00001373  00000-0  52936-4 0  9994
2 45119  51.6437 142.1857 0011779 216.8927 143.1246 15.33689548 28144
